[{"OBJECT_NAME":"STARLINK-3715","OBJECT_ID":"2022-029AR","EPOCH":"2026-03-09T06:55:45.833952","MEAN_MOTION":15.08841874,"ECCENTRICITY":0.00012926,"INCLINATION":53.2168,"RA_OF_ASC_NODE":70.9209,"ARG_OF_PERICENTER":85.1131,"MEAN_ANOMALY":275.0008,"EPHEMERIS_TYPE":0,"CLASSIFICATION_TYPE":"U","NORAD_CAT_ID":52127,"ELEMENT_SET_NO":999,"REV_AT_EPOCH":22086,"BSTAR":0.00010768775,"MEAN_MOTION_DOT":1.426e-5,"MEAN_MOTION_DDOT":0},{"OBJECT_NAME":"CZ-6A DEB","OBJECT_ID":"2024-126C","EPOCH":"2026-03-09T22:45:09.534528","MEAN_MOTION":15.08339588,"ECCENTRICITY":0.00034995,"INCLINATION":97.8272,"RA_OF_ASC_NODE":88.0703,"ARG_OF_PERICENTER":249.9832,"MEAN_ANOMALY":110.1019,"EPHEMERIS_TYPE":0,"CLASSIFICATION_TYPE":"U","NORAD_CAT_ID":60213,"ELEMENT_SET_NO":999,"REV_AT_EPOCH":9177,"BSTAR":0.0010886629,"MEAN_MOTION_DOT":0.00016868,"MEAN_MOTION_DDOT":0}]
